ID,Seqn,Name,Boundary Via,Upper Limit,Lower Limit,latitude,longitude,latitudeOfOrigin,longitudeOfOrigin
D104A,1,D104A JANDAKOT,G ,FL025,SFC,-32.17333333333333,115.79222222222222,,
D104A,2,D104A JANDAKOT,G ,FL025,SFC,-32.183055555555555,115.92472222222223,,
D104A,3,D104A JANDAKOT,G ,FL025,SFC,-32.163333333333334,115.94472222222223,,
D104A,4,D104A JANDAKOT,G ,FL025,SFC,-32.153888888888886,115.79444444444444,,
D104A,5,D104A JANDAKOT,G ,FL025,SFC,-32.15861111111111,115.79166666666667,,
D104A,6,D104A JANDAKOT,G ,FL025,SFC,-32.16777777777777,115.7911111111111,,
D104A,7,D104A JANDAKOT,GE,FL025,SFC,-32.17222222222222,115.79194444444444,,
D104B,1,D104B JANDAKOT,G ,FL035,SFC,-32.22694444444445,115.78611111111111,,
D104B,2,D104B JANDAKOT,G ,FL035,SFC,-32.23027777777778,115.94777777777779,,
D104B,3,D104B JANDAKOT,G ,FL035,SFC,-32.22833333333333,116.01972222222223,,
D104B,4,D104B JANDAKOT,G ,FL035,SFC,-32.189722222222215,116.00277777777778,,
D104B,5,D104B JANDAKOT,G ,FL035,SFC,-32.163333333333334,115.94472222222223,,
D104B,6,D104B JANDAKOT,G ,FL035,SFC,-32.183055555555555,115.92472222222223,,
D104B,7,D104B JANDAKOT,G ,FL035,SFC,-32.17333333333333,115.79222222222222,,
D104B,8,D104B JANDAKOT,G ,FL035,SFC,-32.17666666666666,115.7925,,
D104B,9,D104B JANDAKOT,G ,FL035,SFC,-32.17861111111111,115.7925,,
D104B,10,D104B JANDAKOT,G ,FL035,SFC,-32.18222222222222,115.79277777777777,,
D104B,11,D104B JANDAKOT,G ,FL035,SFC,-32.18472222222222,115.79222222222222,,
D104B,12,D104B JANDAKOT,G ,FL035,SFC,-32.18694444444444,115.79083333333332,,
D104B,13,D104B JANDAKOT,G ,FL035,SFC,-32.18805555555555,115.78805555555556,,
D104B,14,D104B JANDAKOT,G ,FL035,SFC,-32.19027777777777,115.78527777777778,,
D104B,15,D104B JANDAKOT,G ,FL035,SFC,-32.19305555555555,115.7825,,
D104B,16,D104B JANDAKOT,G ,FL035,SFC,-32.19499999999999,115.78138888888888,,
D104B,17,D104B JANDAKOT,G ,FL035,SFC,-32.20444444444445,115.78083333333333,,
D104B,18,D104B JANDAKOT,G ,FL035,SFC,-32.20722222222223,115.78194444444445,,
D104B,19,D104B JANDAKOT,G ,FL035,SFC,-32.20861111111111,115.78333333333333,,
D104B,20,D104B JANDAKOT,G ,FL035,SFC,-32.211666666666666,115.78444444444445,,
D104B,21,D104B JANDAKOT,G ,FL035,SFC,-32.217222222222226,115.78416666666666,,
D104B,22,D104B JANDAKOT,G ,FL035,SFC,-32.220555555555556,115.785,,
D104B,23,D104B JANDAKOT,GE,FL035,SFC,-32.223333333333336,115.78555555555555,,
D104C,1,D104C JANDAKOT,G ,FL060,SFC,-32.22694444444445,115.78611111111111,,
D104C,2,D104C JANDAKOT,G ,FL060,SFC,-32.230555555555554,115.78305555555555,,
D104C,3,D104C JANDAKOT,G ,FL060,SFC,-32.23361111111111,115.7761111111111,,
D104C,4,D104C JANDAKOT,G ,FL060,SFC,-32.23833333333334,115.77944444444444,,
D104C,5,D104C JANDAKOT,G ,FL060,SFC,-32.24472222222222,115.78166666666667,,
D104C,6,D104C JANDAKOT,G ,FL060,SFC,-32.25083333333333,115.78083333333333,,
D104C,7,D104C JANDAKOT,G ,FL060,SFC,-32.25555555555555,115.78055555555555,,
D104C,8,D104C JANDAKOT,G ,FL060,SFC,-32.26027777777778,115.77916666666667,,
D104C,9,D104C JANDAKOT,G ,FL060,SFC,-32.265,115.77805555555555,,
D104C,10,D104C JANDAKOT,G ,FL060,SFC,-32.26888888888889,115.77805555555555,,
D104C,11,D104C JANDAKOT,G ,FL060,SFC,-32.27305555555555,115.78111111111112,,
D104C,12,D104C JANDAKOT,G ,FL060,SFC,-32.27722222222222,115.78583333333333,,
D104C,13,D104C JANDAKOT,G ,FL060,SFC,-32.280277777777776,115.78972222222222,,
D104C,14,D104C JANDAKOT,G ,FL060,SFC,-32.28333333333333,115.79305555555555,,
D104C,15,D104C JANDAKOT,G ,FL060,SFC,-32.285555555555554,115.79416666666667,,
D104C,16,D104C JANDAKOT,G ,FL060,SFC,-32.28972222222222,115.79472222222222,,
D104C,17,D104C JANDAKOT,G ,FL060,SFC,-32.29805555555556,115.79694444444445,,
D104C,18,D104C JANDAKOT,G ,FL060,SFC,-32.30277777777778,115.79555555555555,,
D104C,19,D104C JANDAKOT,G ,FL060,SFC,-32.30916666666666,115.79527777777777,,
D104C,20,D104C JANDAKOT,G ,FL060,SFC,-32.31444444444444,115.79277777777777,,
D104C,21,D104C JANDAKOT,G ,FL060,SFC,-32.31638888888889,115.79138888888889,,
D104C,22,D104C JANDAKOT,G ,FL060,SFC,-32.33583333333333,115.78777777777778,,
D104C,23,D104C JANDAKOT,G ,FL060,SFC,-32.33972222222222,115.78777777777778,,
D104C,24,D104C JANDAKOT,G ,FL060,SFC,-32.34388888888889,115.78666666666666,,
D104C,25,D104C JANDAKOT,G ,FL060,SFC,-32.34916666666667,115.78666666666666,,
D104C,26,D104C JANDAKOT,G ,FL060,SFC,-32.36222222222222,115.7825,,
D104C,27,D104C JANDAKOT,G ,FL060,SFC,-32.365833333333335,115.78111111111112,,
D104C,28,D104C JANDAKOT,G ,FL060,SFC,-32.37111111111111,115.77944444444444,,
D104C,29,D104C JANDAKOT,G ,FL060,SFC,-32.3775,115.77638888888889,,
D104C,30,D104C JANDAKOT,G ,FL060,SFC,-32.38333333333333,115.77472222222222,,
D104C,31,D104C JANDAKOT,G ,FL060,SFC,-32.39055555555556,115.77166666666666,,
D104C,32,D104C JANDAKOT,G ,FL060,SFC,-32.4,115.76944444444445,,
D104C,33,D104C JANDAKOT,G ,FL060,SFC,-32.40333333333333,115.77055555555556,,
D104C,34,D104C JANDAKOT,G ,FL060,SFC,-32.406388888888884,115.7725,,
D104C,35,D104C JANDAKOT,G ,FL060,SFC,-32.409444444444446,115.77305555555556,,
D104C,36,D104C JANDAKOT,G ,FL060,SFC,-32.415277777777774,115.77194444444444,,
D104C,37,D104C JANDAKOT,G ,FL060,SFC,-32.41888888888889,115.7725,,
D104C,38,D104C JANDAKOT,G ,FL060,SFC,-32.428888888888885,115.77222222222223,,
D104C,39,D104C JANDAKOT,G ,FL060,SFC,-32.431666666666665,115.7725,,
D104C,40,D104C JANDAKOT,G ,FL060,SFC,-32.4375,115.7675,,
D104C,41,D104C JANDAKOT,G ,FL060,SFC,-32.44277777777778,115.76388888888889,,
D104C,42,D104C JANDAKOT,G ,FL060,SFC,-32.46944444444445,115.75666666666666,,
D104C,43,D104C JANDAKOT,G ,FL060,SFC,-32.48166666666667,115.75527777777778,,
D104C,44,D104C JANDAKOT,G ,FL060,SFC,-32.49166666666667,115.7461111111111,,
D104C,45,D104C JANDAKOT,G ,FL060,SFC,-32.51694444444444,115.73416666666667,,
D104C,46,D104C JANDAKOT,G ,FL060,SFC,-32.52166666666667,115.72916666666667,,
D104C,47,D104C JANDAKOT,G ,FL060,SFC,-32.525,115.72361111111111,,
D104C,48,D104C JANDAKOT,G ,FL060,SFC,-32.532777777777774,115.71833333333333,,
D104C,49,D104C JANDAKOT,G ,FL060,SFC,-32.535555555555554,115.71722222222222,,
D104C,50,D104C JANDAKOT,G ,FL060,SFC,-32.53638888888889,115.73111111111112,,
D104C,51,D104C JANDAKOT,G ,FL060,SFC,-32.54083333333333,115.75805555555556,,
D104C,52,D104C JANDAKOT,G ,FL060,SFC,-32.54,115.76222222222222,,
D104C,53,D104C JANDAKOT,G ,FL060,SFC,-32.540277777777774,115.76444444444445,,
D104C,54,D104C JANDAKOT,G ,FL060,SFC,-32.54138888888889,115.76583333333333,,
D104C,55,D104C JANDAKOT,G ,FL060,SFC,-32.54361111111111,115.76611111111112,,
D104C,56,D104C JANDAKOT,G ,FL060,SFC,-32.544999999999995,115.76722222222222,,
D104C,57,D104C JANDAKOT,G ,FL060,SFC,-32.55694444444444,115.78277777777778,,
D104C,58,D104C JANDAKOT,G ,FL060,SFC,-32.56722222222223,115.79666666666667,,
D104C,59,D104C JANDAKOT,G ,FL060,SFC,-32.569722222222225,115.80333333333333,,
D104C,60,D104C JANDAKOT,G ,FL060,SFC,-32.573055555555555,115.81777777777778,,
D104C,61,D104C JANDAKOT,G ,FL060,SFC,-32.57527777777778,115.82055555555556,,
D104C,62,D104C JANDAKOT,G ,FL060,SFC,-32.5775,115.82194444444444,,
D104C,63,D104C JANDAKOT,G ,FL060,SFC,-32.58083333333334,115.82305555555556,,
D104C,64,D104C JANDAKOT,G ,FL060,SFC,-32.583333333333336,115.82444444444444,,
D104C,65,D104C JANDAKOT,G ,FL060,SFC,-32.592222222222226,115.82416666666666,,
D104C,66,D104C JANDAKOT,G ,FL060,SFC,-32.59583333333334,115.8261111111111,,
D104C,67,D104C JANDAKOT,G ,FL060,SFC,-32.63055555555555,115.87166666666666,,
D104C,68,D104C JANDAKOT,G ,FL060,SFC,-32.405,116.09777777777778,,
D104C,69,D104C JANDAKOT,G ,FL060,SFC,-32.22833333333333,116.01972222222223,,
D104C,70,D104C JANDAKOT,GE,FL060,SFC,-32.23027777777778,115.94777777777779,,
D106,1,D106 TELFER GOLD MINE,RE,FL016,SFC,-21.675833333333333,122.19083333333333,-21.717499999999998,122.19083333333333
D107,1,D107 MOUNT MAGNET,RE,FL020,SFC,-28.073888888888888,117.8025,-28.090555555555554,117.8025
D108,1,D108 BRITANNIA WELL,RE,FL030,SFC,-28.096666666666664,117.81055555555555,-28.113333333333333,117.81055555555555
D110,1,D110 BROOME,H ,FL015,SFC,-17.841666666666665,122.32916666666667,,
D110,2,D110 BROOME,G ,FL015,SFC,-17.841666666666665,122.33888888888889,,
D110,3,D110 BROOME,G ,FL015,SFC,-17.870833333333334,122.33888888888889,,
D110,4,D110 BROOME,GE,FL015,SFC,-17.879166666666666,122.32916666666667,,
D113,1,D113 MURRIN MURRIN,G ,FL021,SFC,-28.87361111111111,121.70222222222222,,
D113,2,D113 MURRIN MURRIN,R ,FL021,SFC,-28.743333333333336,121.81444444444445,-28.780555555555555,121.87027777777777
D113,3,D113 MURRIN MURRIN,G ,FL021,SFC,-28.803611111111113,121.93527777777778,,
D113,4,D113 MURRIN MURRIN,RE,FL021,SFC,-28.955555555555556,121.86583333333333,-28.924166666666668,121.77777777777777
D116,1,D116 PANNAWONICA,RE,FL037,SFC,-21.68888888888889,116.2538888888889,-21.739166666666666,116.2538888888889
D121,1,D121 COSSACK PIONEER,RE,FL015,SFC,-19.575,116.435,-19.591666666666665,116.435
D126,1,D126 SWANBOURNE,H ,FL015,SFC,-31.95611111111111,115.71666666666667,,
D126,2,D126 SWANBOURNE,G ,FL015,SFC,-31.95611111111111,115.76666666666667,,
D126,3,D126 SWANBOURNE,H ,FL015,SFC,-31.97972222222222,115.76666666666667,,
D126,4,D126 SWANBOURNE,GE,FL015,SFC,-31.97972222222222,115.71666666666667,,
D128,1,D128 NORTHAM,H ,FL025,SFC,-31.648888888888887,116.60666666666665,,
D128,2,D128 NORTHAM,G ,FL025,SFC,-31.648888888888887,116.63027777777778,,
D128,3,D128 NORTHAM,H ,FL025,SFC,-31.6725,116.63027777777778,,
D128,4,D128 NORTHAM,GE,FL025,SFC,-31.6725,116.60666666666665,,
D133,1,D133 GOODWYN ALPHA,RE,FL015,SFC,-19.636666666666667,115.92833333333334,-19.653333333333332,115.92833333333334
D136,1,D136 ALBANY,RE,FL011,SFC,-34.93194444444444,117.84777777777778,-34.948611111111106,117.84777777777778
D137,1,D137 NEWMAN,RE,FL041,SFC,-23.321666666666665,119.795,-23.33833333333333,119.795
D147,1,D147 WILLOWDALE,RE,FL030,SFC,-32.78333333333333,116.05,-32.85,116.05
D150,1,D150 WITHNELL BAY,RE,FL020,SFC,-20.57138888888889,116.77944444444444,-20.588055555555556,116.77944444444444
D151,1,D151 NORTH RANKIN,RE,FL015,SFC,-19.56833333333333,116.13666666666667,-19.584999999999997,116.13666666666667
D158A,1,D158A MERREDIN,RE,FL050,SFC,-31.022222222222222,118.3236111111111,-31.523333333333333,118.3236111111111
D158B,1,D158B MERREDIN,G ,FL080,FL050,-31.3825,118.88472222222222,,
D158B,2,D158B MERREDIN,LE,FL080,FL050,-31.65222222222222,117.75805555555556,-31.523333333333333,118.3236111111111
D159,1,D159 HUNTLY,RE,FL030,SFC,-32.474722222222226,116.15,-32.583333333333336,116.15
D164,1,D164 COOLILUP,G ,FL015,SFC,-33.61666666666667,115.5,,
D164,2,D164 COOLILUP,G ,FL015,SFC,-33.583333333333336,115.5,,
D164,3,D164 COOLILUP,G ,FL015,SFC,-33.583333333333336,115.53333333333333,,
D164,4,D164 COOLILUP,GE,FL015,SFC,-33.61666666666667,115.53333333333333,,
D172,1,D172 KARRATHA,RE,FL005,SFC,-20.666666666666668,116.74166666666667,-20.683333333333334,116.74166666666667
D176,1,D176 ARGYLE MINE,RE,FL021,SFC,-16.697222222222223,128.38555555555556,-16.71388888888889,128.38555555555556
D181,1,D181 MOUNT TOM PRICE,RE,FL067,SFC,-22.69611111111111,117.75416666666666,-22.763055555555557,117.75416666666666
D186,1,D186 BROOKLANDS,RE,FL085,SFC,-31.791666666666668,116.7961111111111,-31.825,116.7961111111111
D188,1,D188 KOOLAN ISLAND,RE,FL020,SFC,-16.12,123.75138888888888,-16.12666666666667,123.75138888888888
D193,1,D193 PEARCE,R ,FL040,SFC,-30.612222222222222,115.14972222222222,-31.945,115.95944444444444
D193,2,D193 PEARCE,G ,FL040,SFC,-30.52138888888889,116.52194444444444,,
D193,3,D193 PEARCE,L ,FL040,SFC,-30.99638888888889,116.33638888888889,-31.945,115.95944444444444
D193,4,D193 PEARCE,G ,FL040,SFC,-31.068055555555556,115.39333333333335,,
D193,5,D193 PEARCE,G ,FL040,SFC,-31.05138888888889,115.38333333333334,,
D193,6,D193 PEARCE,G ,FL040,SFC,-31.046111111111113,115.38111111111111,,
D193,7,D193 PEARCE,G ,FL040,SFC,-31.042222222222225,115.37666666666667,,
D193,8,D193 PEARCE,G ,FL040,SFC,-31.039722222222224,115.37722222222222,,
D193,9,D193 PEARCE,G ,FL040,SFC,-31.03611111111111,115.37666666666667,,
D193,10,D193 PEARCE,G ,FL040,SFC,-31.03222222222222,115.37444444444444,,
D193,11,D193 PEARCE,G ,FL040,SFC,-31.030833333333334,115.37305555555555,,
D193,12,D193 PEARCE,G ,FL040,SFC,-31.025555555555556,115.37194444444444,,
D193,13,D193 PEARCE,G ,FL040,SFC,-31.01638888888889,115.36749999999999,,
D193,14,D193 PEARCE,G ,FL040,SFC,-31.014722222222222,115.36583333333333,,
D193,15,D193 PEARCE,G ,FL040,SFC,-31.008333333333333,115.36194444444443,,
D193,16,D193 PEARCE,G ,FL040,SFC,-31.00611111111111,115.35555555555555,,
D193,17,D193 PEARCE,G ,FL040,SFC,-31.003333333333334,115.35666666666665,,
D193,18,D193 PEARCE,G ,FL040,SFC,-31.00111111111111,115.3586111111111,,
D193,19,D193 PEARCE,G ,FL040,SFC,-30.997777777777777,115.35916666666667,,
D193,20,D193 PEARCE,G ,FL040,SFC,-30.995833333333334,115.3586111111111,,
D193,21,D193 PEARCE,G ,FL040,SFC,-30.993055555555557,115.35666666666665,,
D193,22,D193 PEARCE,G ,FL040,SFC,-30.986944444444447,115.35666666666665,,
D193,23,D193 PEARCE,G ,FL040,SFC,-30.983611111111113,115.35277777777777,,
D193,24,D193 PEARCE,G ,FL040,SFC,-30.9775,115.35416666666666,,
D193,25,D193 PEARCE,G ,FL040,SFC,-30.971944444444443,115.35194444444444,,
D193,26,D193 PEARCE,G ,FL040,SFC,-30.96944444444444,115.34944444444444,,
D193,27,D193 PEARCE,G ,FL040,SFC,-30.966666666666665,115.34833333333333,,
D193,28,D193 PEARCE,G ,FL040,SFC,-30.96388888888889,115.34527777777777,,
D193,29,D193 PEARCE,G ,FL040,SFC,-30.95861111111111,115.345,,
D193,30,D193 PEARCE,G ,FL040,SFC,-30.948611111111113,115.33944444444444,,
D193,31,D193 PEARCE,G ,FL040,SFC,-30.946666666666665,115.33722222222222,,
D193,32,D193 PEARCE,G ,FL040,SFC,-30.94527777777778,115.33444444444444,,
D193,33,D193 PEARCE,G ,FL040,SFC,-30.941388888888888,115.33361111111111,,
D193,34,D193 PEARCE,G ,FL040,SFC,-30.939166666666665,115.33166666666666,,
D193,35,D193 PEARCE,G ,FL040,SFC,-30.936944444444446,115.33083333333333,,
D193,36,D193 PEARCE,G ,FL040,SFC,-30.934444444444445,115.32833333333333,,
D193,37,D193 PEARCE,G ,FL040,SFC,-30.933611111111112,115.32638888888889,,
D193,38,D193 PEARCE,G ,FL040,SFC,-30.93027777777778,115.325,,
D193,39,D193 PEARCE,G ,FL040,SFC,-30.927500000000002,115.32277777777777,,
D193,40,D193 PEARCE,G ,FL040,SFC,-30.925,115.32027777777778,,
D193,41,D193 PEARCE,G ,FL040,SFC,-30.924166666666668,115.31805555555555,,
D193,42,D193 PEARCE,G ,FL040,SFC,-30.921666666666667,115.31833333333333,,
D193,43,D193 PEARCE,G ,FL040,SFC,-30.91333333333333,115.31583333333333,,
D193,44,D193 PEARCE,G ,FL040,SFC,-30.896944444444443,115.30444444444444,,
D193,45,D193 PEARCE,G ,FL040,SFC,-30.892222222222223,115.29916666666666,,
D193,46,D193 PEARCE,G ,FL040,SFC,-30.891388888888887,115.29722222222222,,
D193,47,D193 PEARCE,G ,FL040,SFC,-30.889166666666664,115.29805555555555,,
D193,48,D193 PEARCE,G ,FL040,SFC,-30.880833333333335,115.29777777777778,,
D193,49,D193 PEARCE,G ,FL040,SFC,-30.854444444444447,115.28222222222222,,
D193,50,D193 PEARCE,G ,FL040,SFC,-30.852222222222224,115.27944444444444,,
D193,51,D193 PEARCE,G ,FL040,SFC,-30.850555555555555,115.27805555555555,,
D193,52,D193 PEARCE,G ,FL040,SFC,-30.847777777777775,115.27111111111111,,
D193,53,D193 PEARCE,G ,FL040,SFC,-30.845555555555553,115.27027777777778,,
D193,54,D193 PEARCE,G ,FL040,SFC,-30.843888888888888,115.26888888888888,,
D193,55,D193 PEARCE,G ,FL040,SFC,-30.84111111111111,115.26861111111111,,
D193,56,D193 PEARCE,G ,FL040,SFC,-30.834999999999997,115.26611111111112,,
D193,57,D193 PEARCE,G ,FL040,SFC,-30.8325,115.26333333333334,,
D193,58,D193 PEARCE,G ,FL040,SFC,-30.828333333333333,115.26138888888889,,
D193,59,D193 PEARCE,G ,FL040,SFC,-30.82472222222222,115.25805555555556,,
D193,60,D193 PEARCE,G ,FL040,SFC,-30.810555555555556,115.24833333333333,,
D193,61,D193 PEARCE,G ,FL040,SFC,-30.808611111111112,115.24472222222222,,
D193,62,D193 PEARCE,G ,FL040,SFC,-30.805555555555557,115.24194444444444,,
D193,63,D193 PEARCE,G ,FL040,SFC,-30.803611111111113,115.2388888888889,,
D193,64,D193 PEARCE,G ,FL040,SFC,-30.802222222222223,115.23555555555555,,
D193,65,D193 PEARCE,G ,FL040,SFC,-30.800833333333333,115.22694444444444,,
D193,66,D193 PEARCE,G ,FL040,SFC,-30.803333333333335,115.21833333333333,,
D193,67,D193 PEARCE,G ,FL040,SFC,-30.80027777777778,115.21777777777778,,
D193,68,D193 PEARCE,G ,FL040,SFC,-30.778888888888886,115.22027777777778,,
D193,69,D193 PEARCE,G ,FL040,SFC,-30.77583333333333,115.21944444444445,,
D193,70,D193 PEARCE,G ,FL040,SFC,-30.773055555555555,115.21944444444445,,
D193,71,D193 PEARCE,G ,FL040,SFC,-30.76722222222222,115.2175,,
D193,72,D193 PEARCE,G ,FL040,SFC,-30.765,115.21777777777778,,
D193,73,D193 PEARCE,G ,FL040,SFC,-30.75638888888889,115.21388888888889,,
D193,74,D193 PEARCE,G ,FL040,SFC,-30.75027777777778,115.2125,,
D193,75,D193 PEARCE,G ,FL040,SFC,-30.736666666666668,115.20583333333333,,
D193,76,D193 PEARCE,G ,FL040,SFC,-30.731944444444444,115.20194444444445,,
D193,77,D193 PEARCE,G ,FL040,SFC,-30.72583333333333,115.20027777777779,,
D193,78,D193 PEARCE,G ,FL040,SFC,-30.71861111111111,115.19611111111111,,
D193,79,D193 PEARCE,G ,FL040,SFC,-30.71333333333333,115.19472222222223,,
D193,80,D193 PEARCE,G ,FL040,SFC,-30.710555555555555,115.19250000000001,,
D193,81,D193 PEARCE,G ,FL040,SFC,-30.70888888888889,115.19027777777778,,
D193,82,D193 PEARCE,G ,FL040,SFC,-30.701666666666664,115.1875,,
D193,83,D193 PEARCE,G ,FL040,SFC,-30.696666666666665,115.18361111111112,,
D193,84,D193 PEARCE,G ,FL040,SFC,-30.691944444444445,115.18361111111112,,
D193,85,D193 PEARCE,G ,FL040,SFC,-30.683611111111112,115.18166666666667,,
D193,86,D193 PEARCE,G ,FL040,SFC,-30.68111111111111,115.18083333333334,,
D193,87,D193 PEARCE,G ,FL040,SFC,-30.679444444444446,115.17972222222222,,
D193,88,D193 PEARCE,G ,FL040,SFC,-30.677222222222223,115.17916666666667,,
D193,89,D193 PEARCE,G ,FL040,SFC,-30.675,115.17750000000001,,
D193,90,D193 PEARCE,G ,FL040,SFC,-30.671666666666667,115.1763888888889,,
D193,91,D193 PEARCE,G ,FL040,SFC,-30.66916666666667,115.17527777777778,,
D193,92,D193 PEARCE,G ,FL040,SFC,-30.66722222222222,115.17500000000001,,
D193,93,D193 PEARCE,G ,FL040,SFC,-30.641388888888887,115.16305555555556,,
D193,94,D193 PEARCE,G ,FL040,SFC,-30.63888888888889,115.16222222222223,,
D193,95,D193 PEARCE,G ,FL040,SFC,-30.635555555555555,115.16166666666668,,
D193,96,D193 PEARCE,G ,FL040,SFC,-30.6325,115.16055555555556,,
D193,97,D193 PEARCE,G ,FL040,SFC,-30.628888888888888,115.15777777777778,,
D193,98,D193 PEARCE,G ,FL040,SFC,-30.624166666666667,115.15583333333333,,
D193,99,D193 PEARCE,GE,FL040,SFC,-30.615555555555556,115.15027777777779,,
R119A,1,R119A STIRLING,G ,FL950,SFC,-31.801944444444445,114.79722222222222,,
R119A,2,R119A STIRLING,R ,FL950,SFC,-31.648333333333333,113.63861111111112,-31.945,115.95944444444444
R119A,3,R119A STIRLING,G ,FL950,SFC,-30.841388888888886,114.00888888888889,,
R119A,4,R119A STIRLING,LE,FL950,SFC,-31.396944444444443,114.9786111111111,-31.945,115.95944444444444
R119B,1,R119B STIRLING,G ,FL950,SFC,-32.28194444444444,114.64416666666668,,
R119B,2,R119B STIRLING,R ,FL950,SFC,-32.51416666666667,113.69861111111112,-31.945,115.95944444444444
R119B,3,R119B STIRLING,G ,FL950,SFC,-31.648333333333333,113.63861111111112,,
R119B,4,R119B STIRLING,LE,FL950,SFC,-31.77722222222222,114.60388888888889,-31.945,115.95944444444444
R119C,1,R119C STIRLING,G ,FL950,SFC,-31.77722222222222,114.60388888888889,,
R119C,2,R119C STIRLING,L ,FL950,SFC,-31.87472222222222,115.37805555555555,-31.945,115.95944444444444
R119C,3,R119C STIRLING,G ,FL950,SFC,-32.09111111111111,115.39694444444446,,
R119C,4,R119C STIRLING,RE,FL950,SFC,-32.28194444444444,114.64416666666668,-31.945,115.95944444444444
R119D,1,R119D STIRLING,G ,FL950,SFC,-32.64555555555555,114.85749999999999,,
R119D,2,R119D STIRLING,R ,FL950,SFC,-33.13972222222222,114.05972222222222,-31.945,115.95944444444444
R119D,3,R119D STIRLING,G ,FL950,SFC,-32.51416666666667,113.69861111111112,,
R119D,4,R119D STIRLING,LE,FL950,SFC,-32.28194444444444,114.64416666666668,-31.945,115.95944444444444
R119E,1,R119E STIRLING,G ,FL950,SFC,-32.24638888888889,115.48944444444444,,
R119E,2,R119E STIRLING,R ,FL950,SFC,-32.64555555555555,114.85749999999999,-31.945,115.95944444444444
R119E,3,R119E STIRLING,G ,FL950,SFC,-32.28194444444444,114.64416666666668,,
R119E,4,R119E STIRLING,LE,FL950,SFC,-32.09111111111111,115.39694444444446,-31.945,115.95944444444444
R119F,1,R119F STIRLING,G ,FL950,SFC,-32.97666666666667,115.31055555555555,,
R119F,2,R119F STIRLING,R ,FL950,SFC,-33.711111111111116,114.83777777777777,-31.945,115.95944444444444
R119F,3,R119F STIRLING,G ,FL950,SFC,-33.13972222222222,114.05972222222222,,
R119F,4,R119F STIRLING,LE,FL950,SFC,-32.64555555555555,114.85749999999999,-31.945,115.95944444444444
R119G,1,R119G STIRLING,G ,FL950,SFC,-32.461111111111116,115.63694444444445,,
R119G,2,R119G STIRLING,R ,FL950,SFC,-32.97666666666667,115.31055555555555,-31.945,115.95944444444444
R119G,3,R119G STIRLING,G ,FL950,SFC,-32.64555555555555,114.85749999999999,,
R119G,4,R119G STIRLING,L ,FL950,SFC,-32.24638888888889,115.48944444444444,-31.945,115.95944444444444
R119G,5,R119G STIRLING,GE,FL950,SFC,-32.37555555555556,115.65833333333335,,
R119H,1,R119H STIRLING,G ,FL045,SFC,-32.24638888888889,115.48944444444444,,
R119H,2,R119H STIRLING,G ,FL045,SFC,-32.1575,115.6588888888889,,
R119H,3,R119H STIRLING,G ,FL045,SFC,-32.15972222222222,115.65944444444445,,
R119H,4,R119H STIRLING,G ,FL045,SFC,-32.17472222222222,115.6588888888889,,
R119H,5,R119H STIRLING,G ,FL045,SFC,-32.18333333333333,115.66194444444444,,
R119H,6,R119H STIRLING,G ,FL045,SFC,-32.18555555555555,115.66444444444446,,
R119H,7,R119H STIRLING,G ,FL045,SFC,-32.190555555555555,115.66416666666667,,
R119H,8,R119H STIRLING,G ,FL045,SFC,-32.19888888888889,115.66916666666667,,
R119H,9,R119H STIRLING,G ,FL045,SFC,-32.20527777777778,115.66805555555555,,
R119H,10,R119H STIRLING,G ,FL045,SFC,-32.21138888888889,115.66861111111112,,
R119H,11,R119H STIRLING,G ,FL045,SFC,-32.231944444444444,115.67555555555556,,
R119H,12,R119H STIRLING,G ,FL045,SFC,-32.236666666666665,115.67833333333334,,
R119H,13,R119H STIRLING,G ,FL045,SFC,-32.24305555555556,115.67805555555556,,
R119H,14,R119H STIRLING,G ,FL045,SFC,-32.245555555555555,115.67916666666667,,
R119H,15,R119H STIRLING,G ,FL045,SFC,-32.24777777777778,115.69,,
R119H,16,R119H STIRLING,G ,FL045,SFC,-32.2475,115.69,,
R119H,17,R119H STIRLING,RE,FL045,SFC,-32.37555555555556,115.65833333333335,-31.945,115.95944444444444
R122,1,R122 NORTH WEST CAPE,RE,FL030,SFC,-21.783333333333335,114.15833333333335,-21.816666666666666,114.15833333333335
R123,1,R123 NORTH WEST CAPE,RE,FL010,SFC,-21.883333333333333,114.125,-21.90833333333333,114.125
R124,1,R124 NORTH WEST CAPE,RE,FL010,SFC,-22.31722222222222,114.04444444444444,-22.333888888888886,114.04444444444444
R129,1,R129 BINDOON,H ,FL055,SFC,-31.23888888888889,116.32055555555556,,
R129,2,R129 BINDOON,G ,FL055,SFC,-31.23888888888889,116.34222222222222,,
R129,3,R129 BINDOON,H ,FL055,SFC,-31.25722222222222,116.34222222222222,,
R129,4,R129 BINDOON,GE,FL055,SFC,-31.25722222222222,116.32055555555556,,
R131A,1,R131A YATHARRAGA,RE,UNL,SFC,-28.996111111111112,115.34444444444443,-29.046111111111113,115.34444444444443
R131B,1,R131B YATHARRAGA,RE,UNL,FL050,-28.945833333333333,115.34444444444443,-29.046111111111113,115.34444444444443
R131C,1,R131C YATHARRAGA,RE,UNL,FL100,-28.895833333333332,115.34444444444443,-29.046111111111113,115.34444444444443
R131D,1,R131D YATHARRAGA,RE,UNL,FL150,-28.828888888888887,115.34444444444443,-29.046111111111113,115.34444444444443
R131E,1,R131E YATHARRAGA,RE,UNL,FL250,-28.778888888888886,115.34444444444443,-29.046111111111113,115.34444444444443
R131F,1,R131F YATHARRAGA,RE,UNL,FL350,-28.711944444444445,115.34444444444443,-29.046111111111113,115.34444444444443
R131G,1,R131G YATHARRAGA,RE,UNL,FL450,-28.661666666666665,115.34444444444443,-29.046111111111113,115.34444444444443
R132A,1,R132A BINDOON,G ,FL040,SFC,-31.133333333333333,116.24166666666667,,
R132A,2,R132A BINDOON,H ,FL040,SFC,-31.279999999999998,116.24166666666667,,
R132A,3,R132A BINDOON,G ,FL040,SFC,-31.279999999999998,116.20666666666666,,
R132A,4,R132A BINDOON,H ,FL040,SFC,-31.343333333333334,116.20666666666666,,
R132A,5,R132A BINDOON,G ,FL040,SFC,-31.343333333333334,116.26166666666667,,
R132A,6,R132A BINDOON,H ,FL040,SFC,-31.37138888888889,116.28055555555555,,
R132A,7,R132A BINDOON,G ,FL040,SFC,-31.37138888888889,116.38333333333334,,
R132A,8,R132A BINDOON,HE,FL040,SFC,-31.133333333333333,116.38333333333334,,
R132B,1,R132B BINDOON,G ,FL090,FL040,-31.133333333333333,116.24166666666667,,
R132B,2,R132B BINDOON,H ,FL090,FL040,-31.233333333333334,116.24166666666667,,
R132B,3,R132B BINDOON,G ,FL090,FL040,-31.233333333333334,116.38333333333334,,
R132B,4,R132B BINDOON,HE,FL090,FL040,-31.133333333333333,116.38333333333334,,
R132C,1,R132C BINDOON,G ,FL100,FL040,-31.343333333333334,116.20666666666666,,
R132C,2,R132C BINDOON,H ,FL100,FL040,-31.279999999999998,116.20666666666666,,
R132C,3,R132C BINDOON,G ,FL100,FL040,-31.279999999999998,116.26166666666667,,
R132C,4,R132C BINDOON,HE,FL100,FL040,-31.343333333333334,116.26166666666667,,
R135,1,R135 LAVERTON,RE,FL082,SFC,-28.233055555555556,122.84166666666667,-28.316666666666666,122.84166666666667
R140A,1,R140A GARDEN ISLAND,RE,FL015,SFC,-32.16,115.67166666666667,-32.17666666666666,115.67166666666667
R140B,1,R140B GARDEN ISLAND,RE,FL040,FL015,-32.16,115.67166666666667,-32.17666666666666,115.67166666666667
R144,1,R144 STIRLING,G ,FL020,SFC,-31.879444444444445,115.41555555555556,,
R144,2,R144 STIRLING,R ,FL020,SFC,-31.801944444444445,114.79722222222222,-31.945,115.95944444444444
R144,3,R144 STIRLING,G ,FL020,SFC,-31.32611111111111,115.03833333333333,,
R144,4,R144 STIRLING,G ,FL020,SFC,-31.636388888888888,115.4975,,
R144,5,R144 STIRLING,GE,FL020,SFC,-31.83361111111111,115.55333333333333,,
R145,1,R145 MIMEGARRA,G ,FL250,SFC,-30.741666666666667,115.44166666666668,,
R145,2,R145 MIMEGARRA,H ,FL250,SFC,-30.858333333333334,115.44166666666668,,
R145,3,R145 MIMEGARRA,G ,FL250,SFC,-30.858333333333334,115.36666666666666,,
R145,4,R145 MIMEGARRA,H ,FL250,SFC,-30.925,115.36666666666666,,
R145,5,R145 MIMEGARRA,G ,FL250,SFC,-30.925,115.31666666666666,,
R145,6,R145 MIMEGARRA,HE,FL250,SFC,-30.741666666666667,115.31666666666666,,
